LEMUR-2-DEMBITZ         
1 42842U 17042T   26068.47492167  .00020231  00000+0  76561-3 0  9991
2 42842  97.3807 250.9241 0006961  17.1421 343.0051 15.26947128473114
STARLINK-30544          
1 58055U 23158E   26068.29715545 -.00012434  00000+0 -44228-3 0  9990
2 58055  43.0065  28.9469 0002176 251.3616 108.6999 15.27633848133513
